STARLINK-3356           
1 51133U 22005AF  24132.16379056  .00011092  00000+0  71324-3 0  9993
2 51133  53.2187  55.7605 0001406 125.3682 234.7441 15.08875470129076
STARLINK-3183           
1 51134U 22005AG  24132.13254068  .00000177  00000+0  29167-4 0  9997
2 51134  53.2184  45.9006 0001134 136.3138 223.7944 15.08852780129217
STARLINK-3363           
1 51135U 22005AH  24132.02490582  .00000073  00000+0  22706-4 0  9996
2 51135  53.2192  56.3569 0001700  86.9310 273.1877 15.08848478129053
STARLINK-3253           
1 51136U 22005AJ  24132.07544825  .00006411  00000+0  42012-3 0  9995
2 51136  53.2186  55.9523 0001500 110.6204 249.4949 15.08873652129077
STARLINK-3180           
1 51137U 22005AK  24132.08283231  .00015691  00000+0  10006-2 0  9995
2 51137  53.2185  56.1266 0001613 105.1893 254.9278 15.08883207129064
STARLINK-3177           
1 51138U 22005AL  24132.02396111  .00008144  00000+0  52889-3 0  9993
2 51138  53.2184  56.3923 0001550 106.6482 253.4681 15.08860860129057
STARLINK-3172           
1 51139U 22005AM  24131.94395967  .00000700  00000+0  62034-4 0  9996
2 51139  53.2191  56.7548 0001558 117.6856 242.4294 15.08843905127932
STARLINK-3175           
1 51140U 22005AN  24132.02123591  .00002606  00000+0  18170-3 0  9998
2 51140  53.2194  56.4134 0001975 122.5495 237.5688 15.08855591129053
STARLINK-3179           
1 51141U 22005AP  24132.06811289  .00006750  00000+0  44142-3 0  9993
2 51141  53.2196  56.1930 0001928 120.5517 239.5666 15.08872424129061
STARLINK-3369           
1 51142U 22005AQ  24132.13527297  .00008766  00000+0  56756-3 0  9998
2 51142  53.2194  45.9617 0001535 100.5677 259.5489 15.08878204129244
STARLINK-3184           
1 51143U 22005AR  24132.11873631 -.00018404  00000+0 -11427-2 0  9990
2 51143  53.2193  65.9653 0001521 141.3699 218.7403 15.08791745128929
STARLINK-3185           
1 51144U 22005AS  24131.94027803  .00019593  00000+0  12451-2 0  9999
2 51144  53.2188  56.7705 0002323 121.9883 238.1336 15.08857083127939
STARLINK-3365           
1 51145U 22005AT  24131.85008446  .00000647  00000+0  58740-4 0  9995
2 51145  53.2193  67.1723 0001463 102.7108 257.4048 15.08839631127778
STARLINK-3354           
1 51146U 22005AU  24132.08007263  .00024956  00000+0  15759-2 0  9998
2 51146  53.2196  56.1475 0001594 133.4734 226.6391 15.08948305129067
STARLINK-3352           
1 51147U 22005AV  24132.12240341  .00018271  00000+0  11624-2 0  9990
2 51147  53.2187  65.9478 0001384  78.3645 281.7502 15.08862612128931
STARLINK-3359           
1 51148U 22005AW  24131.53459646 -.00000212  00000+0  47559-5 0  9991
2 51148  53.2179  68.7853 0001559  91.6511 268.4660 15.08829766127721
STARLINK-3360           
1 51149U 22005AX  24131.95773899  .00005031  00000+0  33383-3 0  9998
2 51149  53.2195  66.5038 0001588  95.2963 264.8210 15.08853252127799
STARLINK-3357           
1 51150U 22005AY  24132.09383340  .00013116  00000+0  84000-3 0  9999
2 51150  53.2194  55.6896 0001439  88.8999 271.2158 15.08867603129074
STARLINK-3361           
1 51151U 22005AZ  24132.20331163  .00009604  00000+0  62011-3 0  9994
2 51151  53.2179  65.2710 0001343 108.0893 252.0246 15.08872752128943
STARLINK-3364           
1 51152U 22005BA  24132.19961497  .00013026  00000+0  83393-3 0  9991
2 51152  53.2173  65.2130 0001459 126.0735 234.0392 15.08887172128941
STARLINK-3167           
1 51460U 22010E   24132.11778762  .00009758  00000+0  62964-3 0  9990
2 51460  53.2170  35.9678 0001057 102.0979 258.0132 15.08881445126481
STARLINK-3181           
1 51461U 22010F   24132.13619837  .00039476  00000+0  24828-2 0  9996
2 51461  53.2184  35.8814 0001818  93.8718 266.2483 15.08866395126545
STARLINK-3166           
1 51462U 22010G   24132.13346848  .00031596  00000+0  19913-2 0  9990
2 51462  53.2202  35.9082 0001536 122.5310 237.5831 15.08897812126513
STARLINK-3419           
1 51463U 22010H   24131.90804538  .00007680  00000+0  50002-3 0  9992
2 51463  53.2197  36.9123 0001357  90.9417 269.1731 15.08844255125704
STARLINK-3189           
1 51464U 22010J   24132.12516266  .00061782  00000+0  38624-2 0  9994
2 51464  53.2187  35.9343 0001646  99.3612 260.7566 15.08875971126497
STARLINK-3401           
1 51465U 22010K   24132.12146712  .00011190  00000+0  71914-3 0  9998
2 51465  53.2184  35.9498 0001227 101.9101 258.2029 15.08887091126542
STARLINK-3178           
1 51467U 22010M   24131.90437251  .00003661  00000+0  24793-3 0  9993
2 51467  53.2178  36.9296 0001320  98.9105 261.2037 15.08844454125703
STARLINK-3174           
1 51468U 22010N   24132.11042689  .00013549  00000+0  86674-3 0  9997
2 51468  53.2191  35.9606 0001276 105.3304 254.7829 15.08881089126541
STARLINK-3182           
1 51469U 22010P   24132.12882769  .00019251  00000+0  12229-2 0  9990
2 51469  53.2165  35.9205 0001093 115.0490 245.0616 15.08882267126545
STARLINK-3415           
1 51472U 22010S   24131.90531008  .00010269  00000+0  66208-3 0  9993
2 51472  53.2182  36.8527 0001341  89.2639 270.8507 15.08854203126014
STARLINK-3528           
1 51714U 22016A   24132.17942523  .00007421  00000+0  48341-3 0  9990
2 51714  53.2176  85.6922 0001068  93.6028 266.5086 15.08874214123727
STARLINK-3533           
1 51715U 22016B   24132.10310493  .00004060  00000+0  27278-3 0  9991
2 51715  53.2196  86.0442 0001980 118.8381 241.2810 15.08872005123773
STARLINK-3543           
1 51716U 22016C   24132.10951571  .00013760  00000+0  88009-3 0  9996
2 51716  53.2184  86.0043 0001772 105.0141 255.1047 15.08874706123719
STARLINK-3445           
1 51717U 22016D   24132.18039232  .00005904  00000+0  38841-3 0  9996
2 51717  53.2196  85.7768 0001462  87.5658 272.5502 15.08867491123796
STARLINK-3546           
1 51718U 22016E   24132.15733831  .00004133  00000+0  27743-3 0  9992
2 51718  53.2178  85.7836 0001654 111.9073 248.2095 15.08867009123713
STARLINK-3540           
1 51719U 22016F   24132.17207991  .00008546  00000+0  55397-3 0  9996
2 51719  53.2176  85.7993 0001457 102.2754 257.8401 15.08868506123716
STARLINK-3526           
1 51720U 22016G   24132.15096483  .00035009  00000+0  22034-2 0  9993
2 51720  53.2158  85.7896 0001628  82.9201 277.1976 15.08896911123703
STARLINK-3524           
1 51721U 22016H   24132.16198498  .00004074  00000+0  27371-3 0  9992
2 51721  53.2168  85.7778 0001211 109.2991 250.8132 15.08864199123773
STARLINK-3535           
1 51722U 22016J   24131.61639656  .00006397  00000+0  41952-3 0  9999
2 51722  53.2171  88.2148 0001513 100.0263 260.0900 15.08849053122567
STARLINK-3531           
1 51723U 22016K   24132.25001157 -.00178653  00000+0 -77489-3 0  9991
2 51723  53.1382  57.6065 0000338 155.5492 327.0339 15.84525157129165
STARLINK-3529           
1 51724U 22016L   24132.13895708  .00023000  00000+0  14567-2 0  9992
2 51724  53.2170  85.8737 0001687  77.2253 282.8927 15.08884864123708
STARLINK-3522           
1 51725U 22016M   24132.14999703  .00005504  00000+0  36347-3 0  9994
2 51725  53.2181  85.8174 0001547  88.7365 271.3804 15.08858749123780
STARLINK-3527           
1 51726U 22016N   24132.11410658  .00005833  00000+0  38388-3 0  9991
2 51726  53.2186  75.9822 0001574 106.2089 253.9077 15.08877060123858
STARLINK-3532           
1 51727U 22016P   24132.14259540  .00007100  00000+0  46295-3 0  9991
2 51727  53.2182  85.8532 0001326 116.4845 243.6284 15.08900721123702
STARLINK-3448           
1 51728U 22016Q   24131.57683987  .00016211  00000+0  10338-2 0  9995
2 51728  53.2175  78.3985 0001430  83.3352 276.7803 15.08856923122702
STARLINK-3523           
1 51729U 22016R   24131.58787770  .00004476  00000+0  29902-3 0  9990
2 51729  53.2184  78.3449 0001507  87.2220 272.8944 15.08855178123839
STARLINK-3530           
1 51730U 22016S   24132.16564484  .00010185  00000+0  65673-3 0  9991
2 51730  53.2184  75.7532 0002003  76.2882 283.8333 15.08858447123857
STARLINK-3514           
1 51731U 22016T   24131.58051795  .00012120  00000+0  77782-3 0  9998
2 51731  53.2176  78.3809 0001445  83.2925 276.8231 15.08861824123818
STARLINK-3518           
1 51732U 22016U   24132.16193978  .00004931  00000+0  32737-3 0  9996
2 51732  53.2192  75.7711 0001474  99.3006 260.8153 15.08874269123936
STARLINK-3525           
1 51733U 22016V   24132.17026588  .00010462  00000+0  67380-3 0  9998
2 51733  53.2183  75.7414 0001470 108.5257 251.5895 15.08876150123856
STARLINK-3450           
1 51734U 22016W   24132.15090421  .00007724  00000+0  50230-3 0  9997
2 51734  53.2176  75.8182 0001332  86.9128 273.2016 15.08879383123896
STARLINK-3517           
1 51735U 22016X   24132.15827225  .00005082  00000+0  33692-3 0  9996
2 51735  53.2189  75.7839 0001313  93.0439 267.0703 15.08866262123900
STARLINK-3447           
1 51736U 22016Y   24132.15188056  .00002651  00000+0  18449-3 0  9991
2 51736  53.2190  75.9002 0001260  78.0206 282.0927 15.08854249123911
STARLINK-3509           
1 51737U 22016Z   24131.55843555  .00005068  00000+0  33610-3 0  9999
2 51737  53.2192  78.4787 0001215  93.3289 266.7842 15.08858957123750
STARLINK-3515           
1 51738U 22016AA  24132.13618186  .00008151  00000+0  52906-3 0  9990
2 51738  53.2175  75.8776 0001601 110.5397 249.5767 15.08880017123894
STARLINK-3516           
1 51739U 22016AB  24131.81604055  .00003974  00000+0  26757-3 0  9998
2 51739  53.2184  77.3226 0002076  93.8146 266.3083 15.08848580122733
STARLINK-3500           
1 51740U 22016AC  24132.12882851  .00003507  00000+0  23822-3 0  9999
2 51740  53.2197  75.9147 0001667 100.3029 259.8151 15.08858506123849
STARLINK-3520           
1 51741U 22016AD  24132.07458545  .00002604  00000+0  18152-3 0  9990
2 51741  53.2184  76.1703 0001587 111.8556 248.2605 15.08867825123884
STARLINK-3521           
1 51742U 22016AE  24131.87862705  .00006512  00000+0  42672-3 0  9991
2 51742  53.2173  77.2320 0002765  86.8999 273.2310 15.08853699122740
